OBJECT_NAME,OBJECT_ID,EPOCH,MEAN_MOTION,ECCENTRICITY,INCLINATION,RA_OF_ASC_NODE,ARG_OF_PERICENTER,MEAN_ANOMALY,EPHEMERIS_TYPE,CLASSIFICATION_TYPE,NORAD_CAT_ID,ELEMENT_SET_NO,REV_AT_EPOCH,BSTAR,MEAN_MOTION_DOT,MEAN_MOTION_DDOT
PERSEUS-M1,2014-033AF,2026-06-19T13:52:58.534464,14.95636995,.00101335,97.9640,114.7493,292.2356,67.7790,0,U,40039,999,65099,.128992E-3,.1374E-4,0
POLYITAN-1,2014-033AJ,2026-06-19T08:04:26.402880,15.33319639,.00087522,98.0941,196.8009,135.2104,224.9844,0,U,40042,999,65392,.50656451E-3,.16256E-3,0
TIGRISAT,2014-033AK,2026-06-19T11:22:28.568064,14.85169819,.00505154,97.7834,320.4330,67.8951,292.7617,0,U,40043,999,64596,.18305756E-3,.1548E-4,0
AEROCUBE 6A,2014-033AM,2026-06-19T08:40:13.564704,14.98126940,.00387163,97.7252,337.2870,10.6828,349.5208,0,U,40045,999,64694,.34190132E-3,.4052E-4,0
AEROCUBE 6B,2014-033AN,2026-06-19T08:40:32.046528,14.99587127,.00381505,97.7249,337.0821,1.8619,358.2739,0,U,40046,999,64708,.32792521E-3,.4034E-4,0
CANX-4,2014-034C,2026-06-19T14:00:32.591520,14.81268197,.00129891,98.3119,45.9848,9.5361,350.6094,0,U,40055,999,64488,.92291276E-4,.663E-5,0
CANX-5,2014-034D,2026-06-19T13:58:14.811168,14.81285489,.00129885,98.3120,46.0268,9.7788,350.3674,0,U,40056,999,63569,.93470949E-4,.672E-5,0
UKUBE-1,2014-037F,2026-06-19T13:09:25.596288,15.13585482,.00027498,98.4239,174.0682,127.9455,232.2022,0,U,40074,999,64891,.3948138E-3,.7009E-4,0
BRITE-PL2 (HEWELIUSZ),2014-049B,2026-06-19T13:58:49.822176,14.94600826,.00153645,97.9101,282.6009,101.3495,258.9452,0,U,40119,999,64180,.15857707E-3,.166E-4,0
AEROCUBE 5C,2015-058B,2026-06-19T12:25:26.365728,14.91461880,.01308571,64.7671,255.3406,62.3484,299.0840,0,U,40965,999,36600,.15534813E-3,.1654E-4,0
AEROCUBE 7,2015-058C,2026-06-19T13:46:51.154752,14.95736710,.01205945,64.7613,237.3394,60.7422,300.5685,0,U,40966,999,36631,.19296274E-3,.231E-4,0
FOX-1A (AO-85),2015-058D,2026-06-19T13:35:03.879168,14.90978359,.01305756,64.7756,271.5912,55.6754,305.6634,0,U,40967,999,11392,.16501425E-3,.1743E-4,0
SINOD-D 1,2015-058E,2026-06-19T13:14:41.510112,14.95917149,.01191973,64.7746,251.5076,52.1415,309.0411,0,U,40968,999,11701,.19692009E-3,.2366E-4,0
SNAP-3 ALICE,2015-058G,2026-06-19T05:23:44.579328,15.60483812,.00275805,64.7499,96.8866,11.6673,348.5106,0,U,40970,999,11720,.13970856E-2,.119396E-2,0
LMRST-SAT,2015-058H,2026-06-19T12:31:34.494528,14.90597588,.01321886,64.7751,268.0704,57.7177,303.6661,0,U,40971,999,11390,.14944283E-3,.1551E-4,0
SNAP-3 EDDIE,2015-058J,2026-06-19T11:15:50.307264,15.61823790,.002723,64.7421,86.7482,15.2972,344.8991,0,U,40972,999,11938,.13634033E-2,.122718E-2,0
PROPCUBE 3,2015-058K,2026-06-19T13:14:33.844704,14.94267025,.0124167,64.7678,245.1481,58.9778,302.3459,0,U,40973,999,11515,.17215615E-3,.1974E-4,0
BISONSAT,2015-058L,2026-06-19T09:47:03.494976,15.16233657,.00792866,64.7582,166.4651,46.3425,314.4236,0,U,40974,999,11595,.531874E-3,.11E-3,0
SNAP-3 JIMI,2015-058M,2026-06-19T12:27:30.145824,15.02313920,.01063013,64.7632,212.3943,54.4226,306.6741,0,U,40975,999,11457,.24913422E-3,.3541E-4,0
PROPCUBE 1 (FLORA),2015-058N,2026-06-19T14:43:09.766272,14.89230492,.01308632,64.7742,287.7167,59.9967,301.4055,0,U,40976,999,11662,.16129177E-3,.1619E-4,0
SINOD-D 3,2015-058P,2026-06-19T12:24:21.080160,14.94027166,.01193863,64.7726,268.5443,57.2109,304.0438,0,U,40977,999,11510,.20356246E-3,.2325E-4,0
HORYU-4,2016-012D,2026-06-19T01:29:50.572896,15.97473078,.00060764,30.9841,65.2425,284.0603,75.9383,0,U,41340,999,57111,.93801748E-3,.441316E-2,.73851484E-4
RAVAN,2016-067B,2026-06-19T11:44:40.378272,15.54868993,.00040007,97.9881,60.3266,24.5682,335.5760,0,U,41849,999,52805,.66535974E-3,.4448E-3,0
CELTEE 1,2016-067C,2026-06-19T13:51:35.582688,15.19701017,.00010751,98.0668,37.3072,128.9694,231.1635,0,U,41850,999,52624,.20662878E-3,.4334E-4,0
OPTICUBE 04,2016-067D,2026-06-19T12:45:29.642976,15.09667878,.00169524,98.0697,22.9376,108.2922,252.0152,0,U,41851,999,52552,.12166203E-3,.1893E-4,0
AEROCUBE 8D,2016-067E,2026-06-19T14:01:21.992448,15.24424989,.00048385,98.0674,40.9374,117.5198,242.6529,0,U,41852,999,52643,.25539429E-3,.6185E-4,0
AEROCUBE 8C,2016-067F,2026-06-19T02:00:44.048160,15.24668047,.00065294,98.0544,37.6237,63.7296,296.4610,0,U,41853,999,52635,.23976403E-3,.5845E-4,0
CORVUS BC2,2017-042X,2026-06-19T09:17:20.016672,15.06310794,.00145167,97.4075,331.6508,103.5919,256.6926,0,U,42846,999,48739,.21163072E-3,.3058E-4,0
CORVUS BC1,2017-042Y,2026-06-19T12:20:30.494112,15.06479118,.00134969,97.4109,332.5888,82.2066,278.0693,0,U,42847,999,48744,.17415857E-3,.2516E-4,0
MAKERSAT 0,2017-073D,2026-06-19T04:54:34.853184,15.32154743,.0104988,97.4615,52.7389,265.6718,93.2521,0,U,43016,999,46677,.39819278E-3,.1464E-3,0
